IRIDIUM 126             
1 42809U 17039G   25338.63401036  .00000219  00000+0  71073-4 0  9990
2 42809  86.3969  74.9743 0001815  96.2664 263.8739 14.34217226442064
IRIDIUM 124             
1 42810U 17039H   25338.64874007  .00000704  00000+0  20316-3 0  9997
2 42810  86.4500  11.6907 0002173  99.3037 260.8410 14.43288382447052
IRIDIUM 128             
1 42811U 17039J   25338.41544792  .00000094  00000+0  26494-4 0  9994
2 42811  86.3959 106.5989 0002190 103.5827 256.5613 14.34218077442065
IRIDIUM 121             
1 42812U 17039K   25338.65304286  .00000123  00000+0  36904-4 0  9993
2 42812  86.3971  74.9927 0002149  97.1165 263.0276 14.34217609441941
IRIDIUM 133             
1 42955U 17061A   25338.44716014  .00000158  00000+0  49300-4 0  9991
2 42955  86.3962 106.6989 0001991  97.1777 262.9645 14.34218017426869
IRIDIUM 100             
1 42956U 17061B   25338.65012008  .00000565  00000+0  19454-3 0  9995
2 42956  86.3962 106.5370 0001898  96.6375 263.5037 14.34217815426897
IRIDIUM 122             
1 42957U 17061C   25338.61840977  .00000124  00000+0  37197-4 0  9992
2 42957  86.3959 106.5501 0001902  96.3739 263.7673 14.34217695426891
IRIDIUM 129             
1 42958U 17061D   25338.64377989  .00000057  00000+0  13170-4 0  9994
2 42958  86.3959 106.6042 0001935  83.0289 277.1127 14.34217331426915
